#cP2020  8 16  0  0  0.00000000      96 ORBIT IGb14 HLM  IGS
## 2119      0.00000000   900.00000000 59077 0.0000000000000
+   31   G01G02G03G04G05G06G07G08G09G10G11G12G13G15G16G17G18
+        G19G20G21G22G23G24G25G26G27G28G29G30G31G32  0  0  0
+          0  0  0  0  0  0  0  0  0  0  0  0  0  0  0  0  0
+          0  0  0  0  0  0  0  0  0  0  0  0  0  0  0  0  0
+          0  0  0  0  0  0  0  0  0  0  0  0  0  0  0  0  0
++         2  2  2  2  2  2  2  2  2  2  2  2  2  2  2  2  2
++         2  2  2  2  0  2  2  2  2  2  2  2  2  2  0  0  0
++         0  0  0  0  0  0  0  0  0  0  0  0  0  0  0  0  0
++         0  0  0  0  0  0  0  0  0  0  0  0  0  0  0  0  0
++         0  0  0  0  0  0  0  0  0  0  0  0  0  0  0  0  0
%c G  cc GPS ccc cccc cccc cccc cccc ccccc ccccc ccccc ccccc
%c cc cc ccc ccc cccc cccc cccc cccc ccccc ccccc ccccc ccccc
%f  1.2500000  1.025000000  0.00000000000  0.000000000000000
%f  0.0000000  0.000000000  0.00000000000  0.000000000000000
%i    0    0    0    0      0      0      0      0         0
%i    0    0    0    0      0      0      0      0         0
/* RAPID ORBIT COMBINATION FROM WEIGHTED AVERAGE OF:        
/* cod emr esa gfz jpl ngs sio usn whu                      
/* REFERENCED TO IGS TIME (IGST) AND TO WEIGHTED MEAN POLE: 
/* PCV:IGS14_2118 OL/AL:FES2004  NONE     Y  ORB:CMB CLK:CMB
*  2020  8 16  6  0  0.00000000
PG01 -10312.670793 -13756.701149 -20572.650425     34.004642  5  8  3  69       
PG02 -12960.817936  14298.245504  18876.356762   -502.858477  5  5  2  82       
PG03 -12307.176002 -23528.854386  -1936.232986   -271.398458  6  9  6 107       
PG04  -4594.453744 -18000.183663  18978.618409   -125.039586  4  7  5  67       
PG05  -3080.456110  19033.606206  18034.059819    -18.937590  3  6  5  98       
PG06 -24067.912894   6465.369295   9291.854828   -316.042808  6  7  4 114       
PG07 -24438.200812  -6558.528955   9175.451106   -351.253315     8  5 101       
PG08   4048.460459 -23581.770893 -11235.857744    -44.631604  8 11  8 113       
PG09 -13713.872507  -6928.276180  21612.713035   -271.111890  6  7  3  90       
PG10  17279.951859   2006.468098 -20053.275264   -428.929804  6  5  6  79       
PG11   -132.704507 -17689.048743 -20373.528967   -191.403931  7  9  2  69       
PG12   9976.511813  24548.403549  -2992.276555     79.954526  4  8  3  93       
PG13 -12641.875636  22757.438536  -5094.038035     36.253673  4  9  6 119       
PG15   -576.694131  23736.396282 -11838.844803   -210.297428  5  8  5 102       
PG16   2567.364291 -20353.459635  16394.397936   -196.334904  5  2  2  91       
PG17 -18732.618713  10227.779583 -15357.951289    311.752452  3  7  4 108       
PG18  24487.758371   6121.156839   8317.139483    270.815082  4  7  7  74       
PG19 -19211.362875  15505.107016 -10016.456007   -117.831951  5  6    107       
PG20  20681.238896  11888.075042 -12002.620257    527.023571  5  4  4  63       
PG21  20709.502966 -10234.185032 -12112.885650     36.196743  3  4  5  70       
PG22  -8337.832970 -23458.385353  -9263.290793   -763.711117  6  8  5  95       
PG23  19083.357931  11282.241650 -14662.974356 999999.999999
PG24   7931.238011  14820.564821 -20833.854451    -17.208573  4  6  3  90       
PG25  16936.757409  19369.613184   6878.327196     36.032627  2  7  5  96       
PG26  12154.635048  -9745.114768  21468.273482    262.138901  4  5  4  94       
PG27  12225.636884 -23347.959786  -1198.025241   -372.291067  5  9  6 106       
PG28 -16023.259930  -1501.643374 -20518.805747    689.036318  5  7  6  93       
PG29  10044.302407  11112.723539  21887.042055   -173.782401  6  8  4 113       
PG30 -26642.369042    362.623315  -1317.024010   -283.172434  4  7  3 110       
PG31  23466.257252  -7141.564848  10698.523875    -62.494204  2  3  4  87       
PG32  18490.111248 -11432.216122 -15071.420595    333.264075  6  4  3  86       
*  2020  8 16  6 15  0.00000000
PG01  -7970.186978 -13882.997491 -21489.474492     34.006466  5  8  3  69       
PG02 -14917.025515  14383.750583  17236.032558   -502.863496  5  5  1  69       
PG03 -11915.313324 -23334.919776  -4763.952231   -271.408398  6  9  6 109       
PG04  -3447.577193 -19743.837665  17420.004369   -125.043453  4  8  5  59       
PG05  -4430.398805  17315.490384  19436.445665    -18.938514  4  6  5 104       
PG06 -24974.833048   6321.654115   6594.277845   -316.046629  6  7  4 109       
PG07 -23309.524691  -6799.020448  11644.174643   -351.261272     7  4  87       
PG08   4762.694527 -24506.312568  -8665.915393    -44.632831  8 11  8 112       
PG09 -12589.009702  -9137.539325  21474.598911   -271.117258  5  7  3  93       
PG10  18395.838053   3938.535613 -18759.241077   -428.939088  5  5  6  80       
PG11   1831.948731 -18667.485460 -19401.959865   -191.394527  7  9  1  88       
PG12   9583.868340  24221.227983  -5814.142105     79.950008  4  8  4  92       
PG13 -13071.312955  22955.477040  -2258.800967     36.256327  4  9  6 103       
PG15  -1308.163769  24728.189240  -9402.813886   -210.295385  5  8  5  80       
PG16   3635.572861 -18621.708067  18172.654650   -196.339689  5  2  2  84       
PG17 -17858.031483   8493.284709 -17287.056965    311.757487  3  7  5 111       
PG18  23393.046130   6358.998353  10885.025810    270.822345  4  6  6  89       
PG19 -18660.018408  14374.216055 -12513.696564   -117.827346  5  6    113       
PG20  21267.685687  12993.040893  -9594.115443    527.023602  5  5  5  76       
PG21  22088.560735 -10110.901788  -9654.438101     36.200824  3  3  5  99       
PG22  -7363.400448 -22660.851361 -11688.693295   -763.708266  6  8  6  87       
PG23  19779.430612  12675.763533 -12427.651846 999999.999999
PG24   5573.300168  15114.016441 -21352.027067    -17.209457  3  5  3  93       
PG25  17099.709303  20038.106208   4122.080109     36.037014  1  7  5  94       
PG26  13559.492153  -7714.696945  21472.964595    262.144819  4  5  4  96       
PG27  12410.723099 -23200.311315   1711.445257   -372.299496  5  8  5 111       
PG28 -17030.333938  -3685.441709 -19419.761515    689.032827  5  6  6  77       
PG29   8715.130359  13199.106715  21287.082466   -173.789825  6  8  5 113       
PG30 -26641.615742     58.560072   1479.207220   -283.179094  4  7  3  97       
PG31  24541.965965  -6948.858820   8156.786441    -62.496401  2  3  4 107       
PG32  17811.772986  -9695.407741 -16987.178467    333.268881  7  4  3  97       
*  2020  8 16  6 30  0.00000000
PG01  -5554.070828 -14148.860109 -22046.207549     34.008276  6  8  3 103       
PG02 -16675.648880  14538.141787  15311.886065   -502.868473  4  5     79       
PG03 -11330.104705 -22906.647333  -7510.331451   -271.418309  7 10  6 108       
PG04  -2477.653618 -21371.174561  15561.439707   -125.047373  4  9  4  29       
PG05  -5950.226964  15556.881399  20498.472248    -18.939384  4  7  5  99       
PG06 -25578.120583   6195.857182   3783.626469   -316.050427  6  7  4 114       
PG07 -21932.661004  -7121.017991  13920.594044   -351.268760     6  4  84       
PG08   5308.366486 -25190.349839  -5944.556568    -44.633952  7 11  7 109       
PG09 -11592.113346 -11367.369808  20965.162797   -271.122612  5  6  3  93       
PG10  19515.155008   5672.860211 -17142.652184   -428.948331  5  6  6  88       
PG11   3644.336887 -19667.826080 -18112.057433   -191.385013  8  9  1  97       
PG12   9010.647556  23650.363690  -8537.396171     79.945550  4  7  4  89       
PG13 -13321.185918  22899.202356    615.512080     36.260103  4  9  6 102       
PG15  -1907.626604  25484.221699  -6803.659977   -210.293038  5  8  5 108       
PG16   4888.844743 -16791.158897  19627.836341   -196.343932  4  3  3  70       
PG17 -16985.231590   6529.207460 -18908.575093    311.762526  3  7  5 116       
PG18  22032.958659   6676.127049  13265.857196    270.829652  4  5  6  96       
PG19 -18037.181911  12983.384202 -14798.291122   -117.822816  5  6    111       
PG20  21715.057539  13865.691675  -7023.158190    527.023441  4  5  5  90       
PG21  23178.179121 -10010.601897  -7021.673205     36.204566  2  1  5  93       
PG22  -6178.672706 -21711.343405 -13912.451012   -763.705401  6  8  6 106       
PG23  20387.225036  13820.122676  -9978.857096 999999.999999
PG24   3191.903213  15528.994906 -21510.419624    -17.209712  3  5  3  86       
PG25  17115.264207  20439.752239   1295.677944     36.041383     8  4 100       
PG26  15049.569548  -5774.532454  21107.407348    262.150727  2  4  4  88       
PG27  12469.243239 -22759.838891   4590.792554   -372.307966  5  7  5 103       
PG28 -18076.025916  -5683.230119 -17968.248350    689.029068  5  6  5 104       
PG29   7546.388596  15278.023050  20319.180610   -173.797275  6  7  5 104       
PG30 -26343.952249   -265.864151   4250.329305   -283.185786  4  7  3 101       
PG31  25333.602289  -6791.928962   5478.055747    -62.498753  2  3  4  95       
PG32  17141.965939  -7742.643569 -18607.095022    333.273725  7  5  2  99       
EOF
